IRIDIUM 136             
1 42962U 17061H   23244.30756692  .00000290  00000+0  96306-4 0  9999
2 42962  86.3918  91.4940 0002146  94.9760 265.1680 14.34222135308652
